OBJECT_NAME,OBJECT_ID,EPOCH,MEAN_MOTION,ECCENTRICITY,INCLINATION,RA_OF_ASC_NODE,ARG_OF_PERICENTER,MEAN_ANOMALY,EPHEMERIS_TYPE,CLASSIFICATION_TYPE,NORAD_CAT_ID,ELEMENT_SET_NO,REV_AT_EPOCH,BSTAR,MEAN_MOTION_DOT,MEAN_MOTION_DDOT,RMS,DATA_SOURCE
STARLINK-31323,2024-020G,2026-01-02T19:42:41.999962,15.30184031,.0001335,53.1596,268.2840,81.3500,62.7781,0,C,58882,2,1,.2785E-3,.82633E-4,0,0.272,SpaceX-E
STARLINK-31209,2024-020H,2026-01-02T19:41:42.000000,15.30189152,.0001229,53.1591,268.3251,87.6125,35.2271,0,C,58883,2,1,.11056E-3,.32806E-4,0,0.280,SpaceX-E
STARLINK-31315,2024-020J,2026-01-02T19:42:41.999962,15.30268217,.0001433,53.1581,242.4251,85.5977,140.4109,0,C,58884,2,1,-.25008E-2,-.74205E-3,0,0.541,SpaceX-E
STARLINK-31318,2024-020K,2026-01-02T19:41:42.000000,15.30190223,.0001422,53.1580,268.6981,89.3091,195.7817,0,C,58885,2,1,.31927E-3,.94752E-4,0,0.306,SpaceX-E
STARLINK-31320,2024-020L,2026-01-02T19:39:41.999990,15.30116751,.0001436,53.1589,268.3616,72.8449,24.9032,0,C,58886,2,1,.13978E-2,.4143E-3,0,0.258,SpaceX-E
STARLINK-31321,2024-020M,2026-01-02T19:37:41.999981,15.30265522,.0001083,53.1584,268.4021,84.4860,348.0629,0,C,58887,2,1,-.17355E-2,-.51529E-3,0,0.556,SpaceX-E
STARLINK-31007,2024-020P,2026-01-02T19:42:41.999962,15.30183863,.0001427,53.1582,268.4197,85.8025,348.5313,0,C,58889,2,1,.22337E-3,.66273E-4,0,0.262,SpaceX-E
STARLINK-31230,2024-020Q,2026-01-02T19:47:42.000029,15.30215370,.0001537,53.1584,266.2044,91.8961,51.0206,0,C,58890,2,1,-.11312E-2,-.33552E-3,0,0.396,SpaceX-E
STARLINK-31245,2024-020R,2026-01-02T19:46:41.999981,15.30189496,.0001326,53.1561,227.2135,88.9023,117.9312,0,C,58891,2,1,.48725E-4,.14457E-4,0,0.255,SpaceX-E
STARLINK-31254,2024-020S,2026-01-02T19:45:42.000019,15.91763380,.0013465,53.1342,250.7838,145.3459,79.1744,0,C,58892,2,1,.14102E-2,.49134E-2,0,0.280,SpaceX-E
STARLINK-31255,2024-020T,2026-01-02T19:41:42.000000,15.30186768,.0001261,53.1579,268.4568,83.9065,329.1481,0,C,58893,2,1,.11315E-3,.33569E-4,0,0.262,SpaceX-E
STARLINK-31243,2024-020U,2026-01-02T19:46:41.999981,15.30172697,.00013,53.1578,268.4750,94.4244,320.3296,0,C,58894,2,1,.56195E-3,.16672E-3,0,0.315,SpaceX-E
STARLINK-31218,2024-020V,2026-01-02T19:40:42.000038,15.30181804,.0001274,53.1581,268.5276,85.3259,289.0053,0,C,58895,2,1,.40983E-3,.12161E-3,0,0.322,SpaceX-E
STARLINK-31190,2024-020X,2026-01-02T19:41:42.000000,15.30181152,.0001083,53.1577,268.6030,83.2195,254.2249,0,C,58897,2,1,.36878E-3,.10942E-3,0,0.301,SpaceX-E
STARLINK-31317,2024-027A,2026-01-02T19:38:42.000029,15.30223165,.0001486,53.1588,255.4803,82.2328,316.6334,0,C,58931,2,1,.25511E-3,.75784E-4,0,0.433,SpaceX-E
STARLINK-31378,2024-027B,2026-01-02T19:36:42.000019,15.30181190,.0001351,53.1590,255.5204,80.5355,293.3532,0,C,58932,2,1,.37179E-3,.11031E-3,0,0.292,SpaceX-E
STARLINK-31350,2024-027C,2026-01-02T19:37:41.999981,15.30175630,.0001308,53.1580,255.4145,80.5740,349.4978,0,C,58933,2,1,.5649E-3,.16761E-3,0,0.305,SpaceX-E
STARLINK-31337,2024-027D,2026-01-02T19:43:42.000010,15.30189377,.0001368,53.1577,255.3611,96.3971,14.0625,0,C,58934,2,1,.32302E-3,.95865E-4,0,0.318,SpaceX-E
STARLINK-31362,2024-027E,2026-01-02T19:38:42.000029,15.30187259,.0001037,53.1576,255.8908,101.5754,88.0214,0,C,58935,2,1,.21231E-3,.62996E-4,0,0.300,SpaceX-E
STARLINK-31383,2024-027F,2026-01-02T19:33:41.999962,15.30220465,.0001209,53.1575,255.8954,87.7533,88.4847,0,C,58936,2,1,-.60246E-3,-.17881E-3,0,0.363,SpaceX-E
STARLINK-31390,2024-027G,2026-01-02T19:40:42.000038,15.30186656,.000125,53.1576,255.8267,88.9413,137.3930,0,C,58937,2,1,.14916E-3,.44255E-4,0,0.302,SpaceX-E
STARLINK-31377,2024-027H,2026-01-02T19:38:42.000029,15.30142634,.0001183,53.1574,255.8669,104.1419,97.1404,0,C,58938,2,1,.10109E-2,.29975E-3,0,0.263,SpaceX-E
STARLINK-31372,2024-027J,2026-01-02T19:41:42.000000,15.30187044,.0001355,53.1576,255.7889,84.5333,163.0808,0,C,58939,2,1,.14869E-3,.44116E-4,0,0.245,SpaceX-E
STARLINK-31371,2024-027K,2026-01-02T19:34:42.000010,15.30174388,.0001298,53.1577,255.7996,92.8469,133.7984,0,C,58940,2,1,.49722E-3,.14752E-3,0,0.293,SpaceX-E
STARLINK-31345,2024-027L,2026-01-02T19:36:42.000019,15.30182030,.0001338,53.1581,255.4061,84.2291,347.8235,0,C,58941,2,1,.37693E-3,.11184E-3,0,0.290,SpaceX-E
STARLINK-31354,2024-027M,2026-01-02T19:44:41.999971,15.30195463,.0001286,53.1577,255.7442,93.0247,183.5146,0,C,58942,2,1,-.10935E-3,-.32444E-4,0,0.321,SpaceX-E
STARLINK-31346,2024-027N,2026-01-02T19:39:41.999990,15.30175655,.0001328,53.1587,253.3614,96.4914,303.4185,0,C,58943,2,1,.5345E-3,.15859E-3,0,0.326,SpaceX-E
STARLINK-31336,2024-027P,2026-01-02T19:44:41.999971,15.30190903,.0001241,53.1574,255.8344,84.1165,145.8970,0,C,58944,2,1,-.41998E-4,-.1246E-4,0,0.303,SpaceX-E
STARLINK-31359,2024-027Q,2026-01-02T19:43:42.000010,15.30192564,.0001245,53.1567,217.1393,90.4113,243.9344,0,C,58945,2,1,-.15727E-4,-.46664E-5,0,0.266,SpaceX-E
STARLINK-31331,2024-027R,2026-01-02T19:45:42.000019,15.30179459,.0001346,53.1588,255.6028,94.8899,255.2826,0,C,58946,2,1,.37426E-3,.11104E-3,0,0.288,SpaceX-E
STARLINK-31116,2024-027S,2026-01-02T19:37:41.999981,15.30226087,.0001307,53.1586,255.6625,85.9294,216.1229,0,C,58947,2,1,-.6081E-3,-.18052E-3,0,0.312,SpaceX-E
STARLINK-31311,2024-027T,2026-01-02T19:45:42.000019,15.30182775,.0001257,53.1589,253.3487,83.1146,333.9513,0,C,58948,2,1,.26478E-3,.78558E-4,0,0.264,SpaceX-E
STARLINK-31294,2024-027U,2026-01-02T19:45:42.000019,15.30187241,.000117,53.1577,255.8866,83.0826,121.6847,0,C,58949,2,1,.18881E-3,.56021E-4,0,0.307,SpaceX-E
STARLINK-31330,2024-027W,2026-01-02T19:36:42.000019,15.30232019,.0001335,53.1582,252.8153,84.7609,228.5434,0,C,58951,2,1,-.69506E-4,-.20647E-4,0,0.303,SpaceX-E
STARLINK-31293,2024-027X,2026-01-02T19:44:41.999971,15.30188131,.0001296,53.1590,255.5366,90.1863,291.0477,0,C,58952,2,1,.24544E-3,.72833E-4,0,0.269,SpaceX-E
STARLINK-31373,2024-031A,2026-01-02T19:27:42.000019,15.30198716,.000147,53.1566,242.4006,88.4686,178.8428,0,C,58965,2,1,-.7717E-4,-.229E-4,0,0.301,SpaceX-E
STARLINK-31449,2024-031B,2026-01-02T19:39:41.999990,15.30192261,.0001161,53.1566,242.3386,89.4812,235.4036,0,C,58966,2,1,.44301E-4,.13145E-4,0,0.288,SpaceX-E
STARLINK-31314,2024-031C,2026-01-02T19:36:42.000019,15.30209103,.0001215,53.1572,242.4166,94.7148,183.7724,0,C,58967,2,1,-.37194E-3,-.11038E-3,0,0.283,SpaceX-E
STARLINK-31356,2024-031D,2026-01-02T19:40:42.000038,15.30188227,.0001295,53.1573,214.8022,83.7922,67.9783,0,C,58968,2,1,.13379E-3,.39697E-4,0,0.294,SpaceX-E
STARLINK-31335,2024-031E,2026-01-02T19:44:41.999971,15.30187246,.0001274,53.1574,239.9235,85.8012,34.9265,0,C,58969,2,1,.17261E-4,.51207E-5,0,0.276,SpaceX-E
STARLINK-31368,2024-031F,2026-01-02T19:40:42.000038,15.30190376,.0001193,53.1572,242.3991,90.3670,209.2618,0,C,58970,2,1,-.9809E-5,-.29102E-5,0,0.260,SpaceX-E
STARLINK-31333,2024-031G,2026-01-02T19:45:42.000019,15.30183122,.0001155,53.1580,230.1000,97.1073,322.9768,0,C,58971,2,1,.91299E-4,.27084E-4,0,0.273,SpaceX-E
STARLINK-31351,2024-031H,2026-01-02T19:47:42.000029,15.30198464,.0001251,53.1583,242.5614,77.2490,150.2850,0,C,58972,2,1,-.13532E-3,-.40152E-4,0,0.261,SpaceX-E
STARLINK-31365,2024-031J,2026-01-02T19:38:42.000029,15.30188002,.0001336,53.1584,242.6582,85.5402,72.6611,0,C,58973,2,1,.11046E-3,.32773E-4,0,0.260,SpaceX-E
STARLINK-31361,2024-031K,2026-01-02T19:44:41.999971,15.30187557,.0001291,53.1587,242.6046,81.7678,116.8520,0,C,58974,2,1,.15646E-3,.46422E-4,0,0.331,SpaceX-E
STARLINK-31369,2024-031L,2026-01-02T19:42:41.999962,15.30186307,.0001391,53.1581,242.6792,81.1139,74.9560,0,C,58975,2,1,.13433E-3,.39854E-4,0,0.272,SpaceX-E
STARLINK-31324,2024-031M,2026-01-02T19:39:41.999990,15.30182031,.0001277,53.1581,242.7232,84.8398,42.2990,0,C,58976,2,1,.25427E-3,.75439E-4,0,0.255,SpaceX-E
STARLINK-31358,2024-031N,2026-01-02T19:43:42.000010,15.30190708,.0001308,53.1568,242.3459,91.8241,230.9329,0,C,58977,2,1,.80153E-4,.23783E-4,0,0.277,SpaceX-E
STARLINK-31355,2024-031P,2026-01-02T19:39:41.999990,15.30200127,.0001301,53.1577,242.7574,91.3560,18.2239,0,C,58978,2,1,.5151E-3,.15295E-3,0,0.303,SpaceX-E
STARLINK-31380,2024-031Q,2026-01-02T19:41:42.000000,15.30185347,.0001258,53.1576,242.7850,94.9991,4.8903,0,C,58979,2,1,.12867E-3,.38175E-4,0,0.281,SpaceX-E
STARLINK-31353,2024-031R,2026-01-02T19:44:41.999971,15.30192865,.0001301,53.1577,242.7546,91.6587,31.3404,0,C,58980,2,1,-.12545E-3,-.37218E-4,0,0.294,SpaceX-E
STARLINK-31339,2024-031S,2026-01-02T19:39:41.999990,15.30180561,.0001278,53.1573,242.8254,96.8868,337.8998,0,C,58981,2,1,.34292E-3,.10174E-3,0,0.267,SpaceX-E
STARLINK-31384,2024-031U,2026-01-02T19:34:42.000010,15.30184338,.0001321,53.1572,242.9094,91.3889,289.3628,0,C,58983,2,1,.2484E-3,.73702E-4,0,0.271,SpaceX-E
STARLINK-31379,2024-031V,2026-01-02T19:39:41.999990,15.30191245,.0001158,53.1570,242.9377,81.8819,294.7373,0,C,58984,2,1,.54529E-4,.1618E-4,0,0.303,SpaceX-E
STARLINK-31385,2024-031W,2026-01-02T19:43:42.000010,15.30148301,.0001552,53.1580,240.4886,77.6752,91.0412,0,C,58985,2,1,.72983E-3,.2164E-3,0,0.251,SpaceX-E
STARLINK-31229,2024-031X,2026-01-02T19:46:41.999981,15.30190070,.0001275,53.1568,242.9854,82.6298,285.8821,0,C,58986,2,1,.16104E-3,.47787E-4,0,0.318,SpaceX-E
STARLINK-31468,2024-036A,2026-01-02T19:37:41.999981,15.30187861,.00012,53.1588,23.8244,87.1856,213.2039,0,C,58998,2,1,.15641E-3,.4641E-4,0,0.344,SpaceX-E
STARLINK-31440,2024-036B,2026-01-02T19:40:42.000038,15.30186334,.0001294,53.1591,23.8294,84.4840,215.7612,0,C,58999,2,1,.26652E-3,.79083E-4,0,0.404,SpaceX-E
STARLINK-31529,2024-036C,2026-01-02T19:41:42.000000,15.30193145,.0001286,53.1602,21.8922,90.2633,117.8387,0,C,59000,2,1,.58767E-5,.17437E-5,0,0.335,SpaceX-E
STARLINK-31431,2024-036E,2026-01-02T19:37:41.999981,15.30188724,.000129,53.1587,24.3208,90.7678,313.6982,0,C,59002,2,1,.14135E-3,.41941E-4,0,0.383,SpaceX-E
STARLINK-31435,2024-036G,2026-01-02T19:34:42.000010,15.30174727,.0001452,53.1592,23.8590,88.5961,182.8781,0,C,59004,2,1,.31968E-3,.9483E-4,0,0.252,SpaceX-E
